OBJECT_NAME,OBJECT_ID,EPOCH,MEAN_MOTION,ECCENTRICITY,INCLINATION,RA_OF_ASC_NODE,ARG_OF_PERICENTER,MEAN_ANOMALY,EPHEMERIS_TYPE,CLASSIFICATION_TYPE,NORAD_CAT_ID,ELEMENT_SET_NO,REV_AT_EPOCH,BSTAR,MEAN_MOTION_DOT,MEAN_MOTION_DDOT
STARLINK-31933,2024-098S,2026-07-02T03:50:40.729632,15.27566443,.00004353,43.0012,351.4701,311.0835,48.9979,0,U,59874,999,11935,-.37729556E-4,-.1299E-4,0
STARLINK-31936,2024-098T,2026-07-02T02:16:56.772192,15.27575843,.00017219,43.0042,319.5644,271.2097,88.8557,0,U,59875,999,11970,.23928554E-4,.396E-5,0
STARLINK-31935,2024-098U,2026-07-02T04:22:07.347072,15.27570728,.00009651,43.0037,351.6290,267.7153,92.3589,0,U,59876,999,11935,-.14534453E-4,-.662E-5,0
STARLINK-31934,2024-098V,2026-07-01T18:04:12.344160,15.27584118,.00010957,42.9987,350.1059,279.4038,80.6690,0,U,59877,999,11933,.40346333E-4,.849E-5,0
STARLINK-31943,2024-098W,2026-07-02T03:54:48.773664,15.47284479,.00210327,42.9969,345.4000,301.3983,58.4818,0,U,59878,999,11877,.22205056E-2,.118423E-2,0
STARLINK-31926,2024-098X,2026-07-01T22:13:01.246368,15.27595823,.00010493,42.9998,342.3476,275.7120,84.3612,0,U,59879,999,11943,.20416352E-3,.5363E-4,0
STARLINK-31919,2024-098Y,2026-07-02T04:01:46.357824,15.27573294,.00008752,43.0034,351.5230,280.9595,79.1158,0,U,59880,999,11935,-.2492098E-5,-.33E-5,0
STARLINK-31974,2024-100A,2026-07-01T09:00:32.813856,15.27573429,.00021125,43.0058,203.3621,271.4927,88.5682,0,U,59885,999,11844,.19469917E-4,.273E-5,0
STARLINK-31975,2024-100B,2026-07-01T18:29:10.850208,15.27583127,.00010916,43.0033,201.1661,281.5157,78.5572,0,U,59886,999,11860,.41418149E-4,.878E-5,0
STARLINK-31976,2024-100C,2026-07-01T11:29:30.445440,15.27582780,.00014473,43.0001,206.7112,278.5473,81.5214,0,U,59887,999,11851,.72540738E-4,.1735E-4,0
STARLINK-31965,2024-100D,2026-07-01T18:45:49.797504,15.27602842,.00028218,43.0021,201.2529,265.4019,94.6511,0,U,59888,999,11850,.66033514E-3,.17967E-3,0
STARLINK-31969,2024-100E,2026-07-01T18:22:27.722496,15.27591574,.00051645,43.0127,197.6747,270.0615,89.9645,0,U,59889,999,11864,.4189921E-5,-.149E-5,0
STARLINK-31951,2024-100F,2026-07-01T18:03:16.217856,15.27584498,.00009673,42.9998,201.0283,275.5226,84.5515,0,U,59890,999,11850,.59921344E-4,.1388E-4,0
STARLINK-31949,2024-100G,2026-07-01T18:19:56.317728,15.27577016,.00011543,43.0023,201.1089,265.6592,94.4128,0,U,59891,999,11850,.30043001E-4,.565E-5,0
STARLINK-31977,2024-100H,2026-07-01T17:51:43.454880,15.27575194,.00011794,43.0022,194.0473,269.9186,90.1531,0,U,59892,999,11868,.25407428E-4,.437E-5,0
STARLINK-31963,2024-100J,2026-07-01T18:40:16.655520,15.27580776,.00022455,43.0049,201.2248,272.5089,87.5506,0,U,59893,999,11860,.61147127E-4,.1421E-4,0
STARLINK-31961,2024-100K,2026-07-01T18:17:37.678560,15.27579737,.00014424,43.0032,194.1841,289.3515,70.7180,0,U,59894,999,11868,.2404786E-4,.4E-5,0
STARLINK-31964,2024-100L,2026-07-01T17:48:28.926144,15.27578544,.0000787,43.0016,200.9476,281.7655,78.3108,0,U,59895,999,11855,.45088358E-4,.979E-5,0
STARLINK-31905,2024-100M,2026-07-01T07:38:11.724000,15.27575243,.0001816,43.0020,200.3369,280.9232,79.1415,0,U,59896,999,11857,.61677746E-4,.1435E-4,0
STARLINK-31928,2024-100N,2026-07-01T07:57:51.042528,15.27584697,.00015146,43.0014,203.8961,289.7887,70.2801,0,U,59897,999,11843,.60659221E-4,.1408E-4,0
STARLINK-31953,2024-100P,2026-07-01T18:31:45.340320,15.27529776,.00012119,43.0020,197.7233,284.5020,75.5697,0,U,59898,999,11864,.46635546E-3,.12573E-3,0
STARLINK-31942,2024-100Q,2026-07-01T18:08:50.007840,15.27575305,.00009423,42.9992,201.0563,271.6155,88.4588,0,U,59899,999,11859,-.708888E-6,-.281E-5,0
STARLINK-31676,2024-100R,2026-07-01T18:34:46.885728,15.27560550,.00019504,43.0049,201.1931,268.2756,91.7873,0,U,59900,999,11849,-.13998514E-4,-.647E-5,0
STARLINK-31908,2024-100S,2026-06-30T12:23:06.637920,15.27573511,.00014709,43.0029,201.1718,276.3275,83.7409,0,U,59901,999,11848,-.2919828E-5,-.343E-5,0
STARLINK-31914,2024-100T,2026-07-01T07:52:17.503104,15.27580012,.00008793,42.9996,203.8624,251.0348,109.0408,0,U,59902,999,11842,.25087987E-4,.429E-5,0
STARLINK-31850,2024-100U,2026-07-01T17:55:43.876704,15.27763874,.00011294,43.0129,200.9766,359.0911,0.9938,0,U,59903,999,11854,.16532549E-3,.4315E-4,0
STARLINK-31924,2024-100V,2026-07-01T18:14:23.695872,15.27564874,.00011763,43.0016,201.0831,281.4980,78.5740,0,U,59904,999,11859,-.1855631E-4,-.772E-5,0
STARLINK-31898,2024-100W,2026-07-02T07:01:16.379616,15.27585023,.00017132,43.0031,194.7482,281.0506,79.0153,0,U,59905,999,11871,.4489361E-4,.973E-5,0
STARLINK-31861,2024-100X,2026-07-01T18:04:40.051776,15.27578570,.00013106,43.0025,194.0881,279.1988,80.8715,0,U,59906,999,11867,.24648239E-4,.416E-5,0
STARLINK-31920,2024-100Y,2026-07-02T06:00:02.999808,15.61295443,.00223763,42.9888,146.4780,152.5024,85.6751,0,U,59907,999,593,.17065229E-2,.153254E-2,0
STARLINK-31872,2024-106A,2026-07-01T16:32:37.900320,15.27587731,.00016603,43.0048,49.0521,274.0489,86.0172,0,U,59922,999,11799,.87158869E-4,.2137E-4,0
STARLINK-31972,2024-106B,2026-07-01T22:23:20.813856,15.27583948,.00018743,43.0032,47.4385,287.2408,72.8238,0,U,59923,999,11804,.23843613E-4,.394E-5,0
STARLINK-31958,2024-106C,2026-07-02T00:07:28.288992,15.27595087,.00012324,43.0020,32.4182,274.8626,85.2085,0,U,59924,999,11817,.7326427E-4,.1755E-4,0
STARLINK-31959,2024-106D,2026-07-01T21:39:37.242432,15.27592680,.00014305,43.0018,43.6703,271.7819,88.2869,0,U,59925,999,11803,.11853106E-3,.3002E-4,0
STARLINK-31957,2024-106E,2026-07-01T21:31:31.963008,15.27599033,.00014469,43.0031,47.1672,259.4094,100.6595,0,U,59926,999,11804,.18347619E-4,.243E-5,0
STARLINK-31968,2024-106F,2026-07-01T21:42:38.270304,15.27586417,.00012224,43.0005,47.2260,262.2005,97.8708,0,U,59927,999,11804,.27289741E-4,.489E-5,0
STARLINK-31970,2024-106G,2026-07-01T23:51:57.009312,15.27587264,.00016291,43.0023,47.0434,296.1944,63.8740,0,U,59928,999,11805,.11504508E-3,.2906E-4,0
STARLINK-31932,2024-106H,2026-07-02T06:00:02.999808,15.27573777,.00018469,43.0020,42.3406,273.4892,284.0258,0,U,59929,999,586,-.58683097E-3,-.16372E-3,0
STARLINK-31956,2024-106J,2026-07-01T22:08:32.172576,15.27590905,.0001506,43.0002,47.3647,271.6889,88.3790,0,U,59930,999,11799,.55849549E-4,.1275E-4,0
STARLINK-31960,2024-106K,2026-07-01T21:46:20.479008,15.27589610,.00011323,43.0023,47.2421,273.9770,86.0953,0,U,59931,999,11799,.10227899E-3,.2554E-4,0
STARLINK-31432,2024-106L,2026-07-02T01:33:30.239712,15.27634870,.00020471,43.0022,46.7105,265.6049,94.4569,0,U,59932,999,11800,.2652322E-2,.7358E-3,0
STARLINK-31853,2024-106M,2026-07-01T23:48:14.940576,15.27588957,.00017962,43.0040,47.0222,289.5858,70.4800,0,U,59933,999,11800,.42957051E-4,.92E-5,0
STARLINK-31971,2024-106N,2026-07-01T21:23:09.159936,15.27596518,.00011562,43.0024,44.3749,267.4869,92.5851,0,U,59934,999,11790,.80918763E-4,.1966E-4,0
STARLINK-31962,2024-106Q,2026-07-01T16:28:56.012160,15.27583637,.00013435,43.0049,49.0297,274.7524,85.3174,0,U,59936,999,11795,.30260122E-4,.571E-5,0
STARLINK-31879,2024-106R,2026-07-01T21:26:11.954688,15.27586036,.00014263,43.0052,47.9987,263.5416,96.5273,0,U,59937,999,11803,.79657898E-4,.1931E-4,0
STARLINK-31876,2024-106S,2026-07-01T22:02:59.350272,15.27591387,.00013433,43.0017,47.3334,279.4900,80.5800,0,U,59938,999,11800,.88039003E-4,.2162E-4,0
STARLINK-31955,2024-106T,2026-07-01T21:33:23.535648,15.27583933,.00016093,43.0005,47.1678,269.2071,90.8596,0,U,59939,999,11803,.5594635E-4,.1278E-4,0
STARLINK-31946,2024-106U,2026-07-01T21:20:40.896672,15.27561001,.0001356,43.0060,47.9686,268.5622,91.5074,0,U,59940,999,10861,-.80645607E-4,-.2479E-4,0
STARLINK-31948,2024-106V,2026-07-01T22:46:12.859680,15.27596752,.00012703,43.0050,43.9927,261.8188,98.2520,0,U,59941,999,11803,.81515375E-4,.1983E-4,0
STARLINK-31900,2024-106W,2026-07-01T21:37:05.153376,15.27588683,.00016053,43.0026,47.1983,267.8963,92.1705,0,U,59942,999,11799,.73475166E-4,.1761E-4,0
STARLINK-31973,2024-106X,2026-07-01T16:17:49.897536,15.27587192,.00007254,43.0043,48.9770,259.4151,100.6619,0,U,59943,999,11795,.80088312E-4,.1943E-4,0
STARLINK-31966,2024-106Y,2026-07-01T16:12:16.618176,15.27595020,.00010931,43.0045,48.9424,274.0933,85.9794,0,U,59944,999,11800,-.4820816E-4,-.1589E-4,0
STARLINK-11145 [DTC],2024-107A,2026-07-01T22:11:34.101600,15.69706569,.00004698,53.1593,48.4386,112.1088,247.9980,0,U,59945,999,12008,.11337299E-4,.786E-5,0
STARLINK-11113 [DTC],2024-107C,2026-07-01T14:40:02.961696,15.69720324,.00003771,53.1585,49.2922,113.4407,246.6651,0,U,59947,999,12004,.18224645E-4,.1622E-4,0
STARLINK-11123 [DTC],2024-107D,2026-07-01T21:57:28.546272,15.69684839,.00006655,53.1595,48.3726,62.1500,297.9586,0,U,59948,999,12014,-.11134364E-4,-.1935E-4,0
STARLINK-11138 [DTC],2024-107E,2026-07-01T21:29:11.003136,15.69707692,.00009122,53.1580,48.2404,99.0778,261.0343,0,U,59949,999,12014,.21226787E-4,.1984E-4,0
STARLINK-11130 [DTC],2024-107F,2026-07-01T21:50:22.845696,15.69703304,.00009188,53.1589,48.3395,77.3516,282.7604,0,U,59950,999,12008,.21437818E-4,.2009E-4,0
STARLINK-11124 [DTC],2024-107H,2026-07-01T21:36:14.629248,15.69715013,.00009882,53.1594,48.2751,80.0841,280.0288,0,U,59952,999,12015,.18219156E-4,.162E-4,0
STARLINK-11133 [DTC],2024-107K,2026-07-01T21:15:03.203136,15.69714764,.00007586,53.1596,48.1772,106.2381,253.8721,0,U,59954,999,12008,.12887218E-4,.974E-5,0
STARLINK-11144 [DTC],2024-107L,2026-07-01T21:07:59.497536,15.69712265,.00006987,53.1591,48.1485,88.0176,272.0922,0,U,59955,999,12014,.810921E-5,.395E-5,0
STARLINK-11134 [DTC],2024-107M,2026-07-01T21:00:56.665440,15.69694903,.0001499,53.1602,48.1091,147.3176,212.7935,0,U,59956,999,12001,-.11138924E-4,-.1937E-4,0
STARLINK-11142 [DTC],2024-107N,2026-07-01T14:47:07.216800,15.69716790,.0000361,53.1589,49.3342,148.6590,211.4449,0,U,59957,999,12005,.16535339E-4,.1417E-4,0
STARLINK-31995,2024-107P,2026-07-01T22:05:26.147328,15.34390767,.00009301,53.1588,254.3763,107.0792,253.0312,0,U,59958,999,11609,.25725481E-4,.493E-5,0
